STARLINK-35974          
1 66862U 25281Q   26068.15395687  .00031567  00000+0  11520-2 0  9994
2 66862  43.0029 346.4961 0001821 265.8098  94.2545 15.27571682 16102
2025-313BC              
1 67298U 25313BC  26068.18968176  .00075331  00000+0  26410-2 0  9997
2 67298  97.3985 144.8110 0008478 328.9209  31.1528 15.29126358  7890
